{
    "links": {
        "self": "http://www.neowsapp.com/rest/v1/neo/3529621?api_key=iIulBulltgU6a56xZRHN4H3l9WmuAYTsLGpBGhQ2"
    },
    "id": "3529621",
    "neo_reference_id": "3529621",
    "name": "(2010 LE68)",
    "designation": "2010 LE68",
    "nasa_jpl_url": "http://ssd.jpl.nasa.gov/sbdb.cgi?sstr=3529621",
    "absolute_magnitude_h": 25.9,
    "estimated_diameter": {
        "kilometers": {
            "estimated_diameter_min": 0.0175612318,
            "estimated_diameter_max": 0.0392681082
        },
        "meters": {
            "estimated_diameter_min": 17.561231848,
            "estimated_diameter_max": 39.2681081809
        },
        "miles": {
            "estimated_diameter_min": 0.0109120402,
            "estimated_diameter_max": 0.0244000636
        },
        "feet": {
            "estimated_diameter_min": 57.6155918963,
            "estimated_diameter_max": 128.8323800441
        }
    },
    "is_potentially_hazardous_asteroid": false,
    "close_approach_data": [
        {
            "close_approach_date": "2000-05-24",
            "close_approach_date_full": "2000-May-24 19:10",
            "epoch_date_close_approach": 959195400000,
            "relative_velocity": {
                "kilometers_per_second": "16.2972561821",
                "kilometers_per_hour": "58670.1222556288",
                "miles_per_hour": "36455.3323537822"
            },
            "miss_distance": {
                "astronomical": "0.3464870172",
                "lunar": "134.7834496908",
                "kilometers": "51833719.755773364",
                "miles": "32207979.9523618632"
            },
            "orbiting_body": "Earth"
        },
        {
            "close_approach_date": "2005-06-04",
            "close_approach_date_full": "2005-Jun-04 20:25",
            "epoch_date_close_approach": 1117916700000,
            "relative_velocity": {
                "kilometers_per_second": "11.6210398272",
                "kilometers_per_hour": "41835.7433779661",
                "miles_per_hour": "25995.1039894923"
            },
            "miss_distance": {
                "astronomical": "0.1643524033",
                "lunar": "63.9330848837",
                "kilometers": "24586769.463060971",
                "miles": "15277510.1167885598"
            },
            "orbiting_body": "Earth"
        },
        {
            "close_approach_date": "2010-06-18",
            "close_approach_date_full": "2010-Jun-18 15:06",
            "epoch_date_close_approach": 1276873560000,
            "relative_velocity": {
                "kilometers_per_second": "8.189962972",
                "kilometers_per_hour": "29483.8666991822",
                "miles_per_hour": "18320.1281720557"
            },
            "miss_distance": {
                "astronomical": "0.0297198217",
                "lunar": "11.5610106413",
                "kilometers": "4446022.023099779",
                "miles": "2762629.9802997902"
            },
            "orbiting_body": "Earth"
        },
        {
            "close_approach_date": "2072-08-08",
            "close_approach_date_full": "2072-Aug-08 22:47",
            "epoch_date_close_approach": 3237922020000,
            "relative_velocity": {
                "kilometers_per_second": "8.6522956762",
                "kilometers_per_hour": "31148.2644344647",
                "miles_per_hour": "19354.3201981817"
            },
            "miss_distance": {
                "astronomical": "0.2239413866",
                "lunar": "87.1131993874",
                "kilometers": "33501154.440206542",
                "miles": "20816652.0881605996"
            },
            "orbiting_body": "Earth"
        }
    ],
    "orbital_data": {
        "orbit_id": "14",
        "orbit_determination_date": "2017-04-06 08:57:19",
        "first_observation_date": "2010-06-15",
        "last_observation_date": "2010-06-23",
        "data_arc_in_days": 8,
        "observations_used": 41,
        "orbit_uncertainty": "7",
        "minimum_orbit_intersection": ".0294978",
        "jupiter_tisserand_invariant": "4.663",
        "epoch_osculation": "2459000.5",
        "eccentricity": ".2872828252555165",
        "semi_major_axis": "1.411319152564873",
        "inclination": "11.90892652609101",
        "ascending_node_longitude": "262.4503668312119",
        "orbital_period": "612.4015478898067",
        "perihelion_distance": "1.005871399078815",
        "perihelion_argument": "36.11570987052338",
        "aphelion_distance": "1.816766906050932",
        "perihelion_time": "2459068.629378272748",
        "mean_anomaly": "319.9501727866266",
        "mean_motion": ".5878495918902823",
        "equinox": "J2000",
        "orbit_class": {
            "orbit_class_type": "APO",
            "orbit_class_description": "Near-Earth asteroid orbits which cross the Earth’s orbit similar to that of 1862 Apollo",
            "orbit_class_range": "a (semi-major axis) > 1.0 AU; q (perihelion) < 1.017 AU"
        }
    },
    "is_sentry_object": false
}